[
    {
        "Altitude(m)": 556376.4667481675,
        "Argument of Periapsis(deg)": 0.0,
        "Eccentricity": 0.0,
        "Inclination(deg)": 53.0,
        "Latitude(deg)": 37.24563855829048,
        "Longitude(deg)": -149.70476782485272,
        "Mean Anomaly(deg)": 130.90909999999997,
        "RAAN(deg)": 165.0,
        "Satellite Name": "Starlink Shell 1 734",
        "Satellite Number": 734,
        "Semi-Major Axis(m)": 6931778.249405717,
        "Time(s)": 0
    },
    {
        "Altitude(m)": 556293.336947908,
        "Argument of Periapsis(deg)": 0.00034857847951123687,
        "Eccentricity": 0.0,
        "Inclination(deg)": 53.0,
        "Latitude(deg)": 36.831414771695385,
        "Longitude(deg)": -149.15630754519916,
        "Mean Anomaly(deg)": 131.53593120355674,
        "RAAN(deg)": 164.9994812299225,
        "Satellite Name": "Starlink Shell 1 734",
        "Satellite Number": 734,
        "Semi-Major Axis(m)": 6931778.249405717,
        "Time(s)": 10
    },
    {
        "Altitude(m)": 556210.4033002899,
        "Argument of Periapsis(deg)": 0.0006971569590224737,
        "Eccentricity": 0.0,
        "Inclination(deg)": 53.0,
        "Latitude(deg)": 36.414267902826204,
        "Longitude(deg)": -148.6141879112356,
        "Mean Anomaly(deg)": 132.16276240711346,
        "RAAN(deg)": 164.99896245984505,
        "Satellite Name": "Starlink Shell 1 734",
        "Satellite Number": 734,
        "Semi-Major Axis(m)": 6931778.249405717,
        "Time(s)": 20
    },
    {
        "Altitude(m)": 556127.7213639491,
        "Argument of Periapsis(deg)": 0.0010457354385337105,
        "Eccentricity": 0.0,
        "Inclination(deg)": 53.0,
        "Latitude(deg)": 35.99427155822066,
        "Longitude(deg)": -148.0782891441873,
        "Mean Anomaly(deg)": 132.78959361067015,
        "RAAN(deg)": 164.99844368976756,
        "Satellite Name": "Starlink Shell 1 734",
        "Satellite Number": 734,
        "Semi-Major Axis(m)": 6931778.249405717,
        "Time(s)": 30
    },
    {
        "Altitude(m)": 556045.3467784598,
        "Argument of Periapsis(deg)": 0.0013943139180449475,
        "Eccentricity": 0.0,
        "Inclination(deg)": 53.0,
        "Latitude(deg)": 35.57149770462403,
        "Longitude(deg)": -147.54849139001277,
        "Mean Anomaly(deg)": 133.41642481422684,
        "RAAN(deg)": 164.99792491969012,
        "Satellite Name": "Starlink Shell 1 734",
        "Satellite Number": 734,
        "Semi-Major Axis(m)": 6931778.249405717,
        "Time(s)": 40
    },
    {
        "Altitude(m)": 555963.3352357185,
        "Argument of Periapsis(deg)": 0.0017428923975561844,
        "Eccentricity": 0.0,
        "Inclination(deg)": 53.0,
        "Latitude(deg)": 35.14601669879303,
        "Longitude(deg)": -147.02467584228975,
        "Mean Anomaly(deg)": 134.0432560177836,
        "RAAN(deg)": 164.99740614961263,
        "Satellite Name": "Starlink Shell 1 734",
        "Satellite Number": 734,
        "Semi-Major Axis(m)": 6931778.249405717,
        "Time(s)": 50
    },
    {
        "Altitude(m)": 555881.7424512402,
        "Argument of Periapsis(deg)": 0.002091470877067421,
        "Eccentricity": 0.0,
        "Inclination(deg)": 53.0,
        "Latitude(deg)": 34.717897318126354,
        "Longitude(deg)": -146.50672434193962,
        "Mean Anomaly(deg)": 134.67008722134034,
        "RAAN(deg)": 164.99688737953517,
        "Satellite Name": "Starlink Shell 1 734",
        "Satellite Number": 734,
        "Semi-Major Axis(m)": 6931778.249405717,
        "Time(s)": 60
    },
    {
        "Altitude(m)": 555800.6241354039,
        "Argument of Periapsis(deg)": 0.0024400493565786582,
        "Eccentricity": 0.0,
        "Inclination(deg)": 53.0,
        "Latitude(deg)": 34.287206791977745,
        "Longitude(deg)": -145.99451896723153,
        "Mean Anomaly(deg)": 135.29691842489697,
        "RAAN(deg)": 164.99636860945768,
        "Satellite Name": "Starlink Shell 1 734",
        "Satellite Number": 734,
        "Semi-Major Axis(m)": 6931778.249405717,
        "Time(s)": 70
    },
    {
        "Altitude(m)": 555720.0359646499,
        "Argument of Periapsis(deg)": 0.002788627836089895,
        "Eccentricity": 0.0,
        "Inclination(deg)": 53.0,
        "Latitude(deg)": 33.85401083352097,
        "Longitude(deg)": -145.48794312749519,
        "Mean Anomaly(deg)": 135.92374962845372,
        "RAAN(deg)": 164.9958498393802,
        "Satellite Name": "Starlink Shell 1 734",
        "Satellite Number": 734,
        "Semi-Major Axis(m)": 6931778.249405717,
        "Time(s)": 80
    },
    {
        "Altitude(m)": 555640.0335526593,
        "Argument of Periapsis(deg)": 0.0031372063156011316,
        "Eccentricity": 0.0,
        "Inclination(deg)": 53.0,
        "Latitude(deg)": 33.41837367203913,
        "Longitude(deg)": -144.98688113533638,
        "Mean Anomaly(deg)": 136.55058083201038,
        "RAAN(deg)": 164.99533106930272,
        "Satellite Name": "Starlink Shell 1 734",
        "Satellite Number": 734,
        "Semi-Major Axis(m)": 6931778.249405717,
        "Time(s)": 90
    },
    {
        "Altitude(m)": 555560.672421498,
        "Argument of Periapsis(deg)": 0.0034857847951123688,
        "Eccentricity": 0.0,
        "Inclination(deg)": 53.0,
        "Latitude(deg)": 32.98035808552747,
        "Longitude(deg)": -144.49121777074419,
        "Mean Anomaly(deg)": 137.17741203556716,
        "RAAN(deg)": 164.9948122992253,
        "Satellite Name": "Starlink Shell 1 734",
        "Satellite Number": 734,
        "Semi-Major Axis(m)": 6931778.249405717,
        "Time(s)": 100
    },
    {
        "Altitude(m)": 555482.007972788,
        "Argument of Periapsis(deg)": 0.003834363274623606,
        "Eccentricity": 0.0,
        "Inclination(deg)": 53.0,
        "Latitude(deg)": 32.54002543351047,
        "Longitude(deg)": -144.00083935046587,
        "Mean Anomaly(deg)": 137.80424323912388,
        "RAAN(deg)": 164.99429352914777,
        "Satellite Name": "Starlink Shell 1 734",
        "Satellite Number": 734,
        "Semi-Major Axis(m)": 6931778.249405717,
        "Time(s)": 110
    },
    {
        "Altitude(m)": 555404.0954588562,
        "Argument of Periapsis(deg)": 0.004182941754134842,
        "Eccentricity": 0.0,
        "Inclination(deg)": 53.0,
        "Latitude(deg)": 32.09743568997398,
        "Longitude(deg)": -143.51563327738072,
        "Mean Anomaly(deg)": 138.43107444268057,
        "RAAN(deg)": 164.99377475907033,
        "Satellite Name": "Starlink Shell 1 734",
        "Satellite Number": 734,
        "Semi-Major Axis(m)": 6931778.249405717,
        "Time(s)": 120
    },
    {
        "Altitude(m)": 555326.9899539457,
        "Argument of Periapsis(deg)": 0.004531520233646079,
        "Eccentricity": 0.0,
        "Inclination(deg)": 53.0,
        "Latitude(deg)": 31.652647476331428,
        "Longitude(deg)": -143.03548758321017,
        "Mean Anomaly(deg)": 139.05790564623732,
        "RAAN(deg)": 164.99325598899284,
        "Satellite Name": "Starlink Shell 1 734",
        "Satellite Number": 734,
        "Semi-Major Axis(m)": 6931778.249405717,
        "Time(s)": 130
    },
    {
        "Altitude(m)": 555250.7463254344,
        "Argument of Periapsis(deg)": 0.0048800987131573164,
        "Eccentricity": 0.0,
        "Inclination(deg)": 53.0,
        "Latitude(deg)": 31.205718094348622,
        "Longitude(deg)": -142.56029197787154,
        "Mean Anomaly(deg)": 139.68473684979398,
        "RAAN(deg)": 164.99273721891538,
        "Satellite Name": "Starlink Shell 1 734",
        "Satellite Number": 734,
        "Semi-Major Axis(m)": 6931778.249405717,
        "Time(s)": 140
    },
    {
        "Altitude(m)": 555175.4192051624,
        "Argument of Periapsis(deg)": 0.005228677192668553,
        "Eccentricity": 0.0,
        "Inclination(deg)": 53.0,
        "Latitude(deg)": 30.756703558954708,
        "Longitude(deg)": -142.08993738015286,
        "Mean Anomaly(deg)": 140.31156805335075,
        "RAAN(deg)": 164.9922184488379,
        "Satellite Name": "Starlink Shell 1 734",
        "Satellite Number": 734,
        "Semi-Major Axis(m)": 6931778.249405717,
        "Time(s)": 150
    },
    {
        "Altitude(m)": 555101.0629607576,
        "Argument of Periapsis(deg)": 0.00557725567217979,
        "Eccentricity": 0.0,
        "Inclination(deg)": 53.0,
        "Latitude(deg)": 30.305658630878675,
        "Longitude(deg)": -141.62431544297857,
        "Mean Anomaly(deg)": 140.93839925690745,
        "RAAN(deg)": 164.99169967876045,
        "Satellite Name": "Starlink Shell 1 734",
        "Satellite Number": 734,
        "Semi-Major Axis(m)": 6931778.249405717,
        "Time(s)": 160
    },
    {
        "Altitude(m)": 555027.7316671081,
        "Argument of Periapsis(deg)": 0.0059258341516910265,
        "Eccentricity": 0.0,
        "Inclination(deg)": 53.0,
        "Latitude(deg)": 29.852636849058953,
        "Longitude(deg)": -141.16331958651816,
        "Mean Anomaly(deg)": 141.5652304604642,
        "RAAN(deg)": 164.99118090868294,
        "Satellite Name": "Starlink Shell 1 734",
        "Satellite Number": 734,
        "Semi-Major Axis(m)": 6931778.249405717,
        "Time(s)": 170
    },
    {
        "Altitude(m)": 554955.4790779097,
        "Argument of Periapsis(deg)": 0.006274412631202263,
        "Eccentricity": 0.0,
        "Inclination(deg)": 53.0,
        "Latitude(deg)": 29.397690562773537,
        "Longitude(deg)": -140.7068445137525,
        "Mean Anomaly(deg)": 142.19206166402086,
        "RAAN(deg)": 164.9906621386055,
        "Satellite Name": "Starlink Shell 1 734",
        "Satellite Number": 734,
        "Semi-Major Axis(m)": 6931778.249405717,
        "Time(s)": 180
    }
]